{"type": "FeatureCollection", "features": [ {"type": "Feature", "properties": {"norad_id": 40664, "name": "SKY MEXICO-1", "group": "intelsat", "lat": -0.004502234543436855, "lon": -172.29662335164267, "alt_km": 35788.658316267836, "timestamp": "2025-12-24T11:32:59.671958+00:00", "meta": {"OBJECT_NAME": "SKY MEXICO-1", "OBJECT_ID": "2015-026B", "EPOCH": "2025-12-24T03:37:32.085984", "MEAN_MOTION": 1.00270423, "ECCENTRICITY": 0.0002479, "INCLINATION": 0.0113, "RA_OF_ASC_NODE": 351.7636, "ARG_OF_PERICENTER": 297.9698, "MEAN_ANOMALY": 138.8157, "EPHEMERIS_TYPE": 0, "CLASSIFICATION_TYPE": "U", "NORAD_CAT_ID": 40664, "ELEMENT_SET_NO": 999, "REV_AT_EPOCH": 3869, "BSTAR": 0, "MEAN_MOTION_DOT": -2.13e-06, "MEAN_MOTION_DDOT": 0}, "tle": {"line1": "1 40664U 15026B   25358.15106581 -.00000213  00000+0  00000+0 0  9999", "line2": "2 40664   0.0113 351.7636 0002479 297.9698 138.8157  1.00270423 38698"}}, "geometry": {"type": "Point", "coordinates": [-172.29662335164267, -0.004502234543436855]}}, {"type": "Feature", "properties": {"norad_id": 40874, "name": "INTELSAT 34 (IS-34)", "group": "intelsat", "lat": -0.0190835954592775, "lon": -148.99086376004126, "alt_km": 35784.63035015781, "timestamp": "2025-12-24T11:32:59.671972+00:00", "meta": {"OBJECT_NAME": "INTELSAT 34 (IS-34)", "OBJECT_ID": "2015-039A", "EPOCH": "2025-12-24T00:41:01.834080", "MEAN_MOTION": 1.0027036, "ECCENTRICITY": 7.08e-05, "INCLINATION": 0.0133, "RA_OF_ASC_NODE": 315.3978, "ARG_OF_PERICENTER": 205.631, "MEAN_ANOMALY": 246.5458, "EPHEMERIS_TYPE": 0, "CLASSIFICATION_TYPE": "U", "NORAD_CAT_ID": 40874, "ELEMENT_SET_NO": 999, "REV_AT_EPOCH": 3786, "BSTAR": 0, "MEAN_MOTION_DOT": -2.64e-06, "MEAN_MOTION_DDOT": 0}, "tle": {"line1": "1 40874U 15039A   25358.02849345 -.00000264  00000+0  00000+0 0  9990", "line2": "2 40874   0.0133 315.3978 0000708 205.6310 246.5458  1.00270360 37867"}}, "geometry": {"type": "Point", "coordinates": [-148.99086376004126, -0.0190835954592775]}}, {"type": "Feature", "properties": {"norad_id": 41581, "name": "INTELSAT 31 (IS-31)", "group": "intelsat", "lat": -0.009338472709369336, "lon": 171.41979891595068, "alt_km": 35780.01094182974, "timestamp": "2025-12-24T11:32:59.671984+00:00", "meta": {"OBJECT_NAME": "INTELSAT 31 (IS-31)", "OBJECT_ID": "2016-035A", "EPOCH": "2025-12-23T19:31:44.703840", "MEAN_MOTION": 1.00269658, "ECCENTRICITY": 0.0001926, "INCLINATION": 0.0283, "RA_OF_ASC_NODE": 262.055, "ARG_OF_PERICENTER": 303.365, "MEAN_ANOMALY": 85.0534, "EPHEMERIS_TYPE": 0, "CLASSIFICATION_TYPE": "U", "NORAD_CAT_ID": 41581, "ELEMENT_SET_NO": 999, "REV_AT_EPOCH": 3492, "BSTAR": 0, "MEAN_MOTION_DOT": -1.29e-06, "MEAN_MOTION_DDOT": 0}, "tle": {"line1": "1 41581U 16035A   25357.81371185 -.00000129  00000+0  00000+0 0  9991", "line2": "2 41581   0.0283 262.0550 0001926 303.3650  85.0534  1.00269658 34922"}}, "geometry": {"type": "Point", "coordinates": [171.41979891595068, -0.009338472709369336]}}, {"type": "Feature", "properties": {"norad_id": 41747, "name": "INTELSAT 36 (IS-36)", "group": "intelsat", "lat": -0.019009432103251137, "lon": -25.007661301431725, "alt_km": 35781.533528095446, "timestamp": "2025-12-24T11:32:59.671996+00:00", "meta": {"OBJECT_NAME": "INTELSAT 36 (IS-36)", "OBJECT_ID": "2016-053A", "EPOCH": "2025-12-24T02:10:38.805024", "MEAN_MOTION": 1.00271051, "ECCENTRICITY": 0.0001143, "INCLINATION": 0.0107, "RA_OF_ASC_NODE": 9.0027, "ARG_OF_PERICENTER": 316.4873, "MEAN_ANOMALY": 228.5357, "EPHEMERIS_TYPE": 0, "CLASSIFICATION_TYPE": "U", "NORAD_CAT_ID": 41747, "ELEMENT_SET_NO": 999, "REV_AT_EPOCH": 3419, "BSTAR": 0, "MEAN_MOTION_DOT": -3e-08, "MEAN_MOTION_DDOT": 0}, "tle": {"line1": "1 41747U 16053A   25358.09072691 -.00000003  00000+0  00000+0 0  9997", "line2": "2 41747   0.0107   9.0027 0001143 316.4873 228.5357  1.00271051 34198"}}, "geometry": {"type": "Point", "coordinates": [-25.007661301431725, -0.019009432103251137]}}, {"type": "Feature", "properties": {"norad_id": 41945, "name": "INTELSAT 32E (IS-32E)", "group": "intelsat", "lat": 0.002339798269737161, "lon": -136.679054314812, "alt_km": 35787.91538217318, "timestamp": "2025-12-24T11:32:59.672007+00:00", "meta": {"OBJECT_NAME": "INTELSAT 32E (IS-32E)", "OBJECT_ID": "2017-007B", "EPOCH": "2025-12-23T16:21:03.290976", "MEAN_MOTION": 1.0026875, "ECCENTRICITY": 2.529e-05, "INCLINATION": 0.0225, "RA_OF_ASC_NODE": 67.8207, "ARG_OF_PERICENTER": 7.8321, "MEAN_ANOMALY": 218.9086, "EPHEMERIS_TYPE": 0, "CLASSIFICATION_TYPE": "U", "NORAD_CAT_ID": 41945, "ELEMENT_SET_NO": 999, "REV_AT_EPOCH": 3246, "BSTAR": 0, "MEAN_MOTION_DOT": -2.48e-06, "MEAN_MOTION_DDOT": 0}, "tle": {"line1": "1 41945U 17007B   25357.68128809 -.00000248  00000+0  00000+0 0  9995", "line2": "2 41945   0.0225  67.8207 0000252   7.8321 218.9086  1.00268750 32462"}}, "geometry": {"type": "Point", "coordinates": [-136.679054314812, 0.002339798269737161]}}, {"type": "Feature", "properties": {"norad_id": 42818, "name": "INTELSAT 35E (IS-35E)", "group": "intelsat", "lat": -0.021833791893564748, "lon": -128.03732358016507, "alt_km": 35781.725331106565, "timestamp": "2025-12-24T11:32:59.672019+00:00", "meta": {"OBJECT_NAME": "INTELSAT 35E (IS-35E)", "OBJECT_ID": "2017-041A", "EPOCH": "2025-12-23T23:14:23.856288", "MEAN_MOTION": 1.00266956, "ECCENTRICITY": 0.0002031, "INCLINATION": 0.0217, "RA_OF_ASC_NODE": 27.5752, "ARG_OF_PERICENTER": 252.3996, "MEAN_ANOMALY": 126.8659, "EPHEMERIS_TYPE": 0, "CLASSIFICATION_TYPE": "U", "NORAD_CAT_ID": 42818, "ELEMENT_SET_NO": 999, "REV_AT_EPOCH": 3105, "BSTAR": 0, "MEAN_MOTION_DOT": 0, "MEAN_MOTION_DDOT": 0}, "tle": {"line1": "1 42818U 17041A   25357.96833167  .00000000  00000+0  00000+0 0  9999", "line2": "2 42818   0.0217  27.5752 0002031 252.3996 126.8659  1.00266956 31056"}}, "geometry": {"type": "Point", "coordinates": [-128.03732358016507, -0.021833791893564748]}}, {"type": "Feature", "properties": {"norad_id": 42950, "name": "INTELSAT 37E (IS-37E)", "group": "intelsat", "lat": -0.03411137812400958, "lon": -111.50988419413667, "alt_km": 35774.04987422229, "timestamp": "2025-12-24T11:32:59.672031+00:00", "meta": {"OBJECT_NAME": "INTELSAT 37E (IS-37E)", "OBJECT_ID": "2017-059A", "EPOCH": "2025-12-24T00:52:38.727840", "MEAN_MOTION": 1.0027001, "ECCENTRICITY": 0.000305, "INCLINATION": 0.0201, "RA_OF_ASC_NODE": 17.6839, "ARG_OF_PERICENTER": 244.2986, "MEAN_ANOMALY": 185.9996, "EPHEMERIS_TYPE": 0, "CLASSIFICATION_TYPE": "U", "NORAD_CAT_ID": 42950, "ELEMENT_SET_NO": 999, "REV_AT_EPOCH": 3031, "BSTAR": 0, "MEAN_MOTION_DOT": 0, "MEAN_MOTION_DDOT": 0}, "tle": {"line1": "1 42950U 17059A   25358.03655935  .00000000  00000+0  00000+0 0  9999", "line2": "2 42950   0.0201  17.6839 0003050 244.2986 185.9996  1.00270010 30317"}}, "geometry": {"type": "Point", "coordinates": [-111.50988419413667, -0.03411137812400958]}}, {"type": "Feature", "properties": {"norad_id": 43632, "name": "AZERSPACE 2 (IS-38)", "group": "intelsat", "lat": -0.03000033506462547, "lon": -48.38875224217468, "alt_km": 35782.19062622251, "timestamp": "2025-12-24T11:32:59.672044+00:00", "meta": {"OBJECT_NAME": "AZERSPACE 2 (IS-38)", "OBJECT_ID": "2018-074A", "EPOCH": "2025-12-24T00:05:38.704416", "MEAN_MOTION": 1.00270613, "ECCENTRICITY": 0.0001264, "INCLINATION": 0.0171, "RA_OF_ASC_NODE": 357.1887, "ARG_OF_PERICENTER": 275.4816, "MEAN_ANOMALY": 226.6323, "EPHEMERIS_TYPE": 0, "CLASSIFICATION_TYPE": "U", "NORAD_CAT_ID": 43632, "ELEMENT_SET_NO": 999, "REV_AT_EPOCH": 2669, "BSTAR": 0, "MEAN_MOTION_DOT": 1.58e-06, "MEAN_MOTION_DDOT": 0}, "tle": {"line1": "1 43632U 18074A   25358.00392019  .00000158  00000+0  00000+0 0  9997", "line2": "2 43632   0.0171 357.1887 0001264 275.4816 226.6323  1.00270613 26691"}}, "geometry": {"type": "Point", "coordinates": [-48.38875224217468, -0.03000033506462547]}}, {"type": "Feature", "properties": {"norad_id": 43633, "name": "HORIZONS-3E", "group": "intelsat", "lat": -0.007977435107393278, "lon": 75.49137234813755, "alt_km": 35788.109109009994, "timestamp": "2025-12-24T11:32:59.672056+00:00", "meta": {"OBJECT_NAME": "HORIZONS-3E", "OBJECT_ID": "2018-074B", "EPOCH": "2025-12-23T20:47:00.472416", "MEAN_MOTION": 1.00269881, "ECCENTRICITY": 5.75e-05, "INCLINATION": 0.0122, "RA_OF_ASC_NODE": 213.39, "ARG_OF_PERICENTER": 93.907, "MEAN_ANOMALY": 266.0966, "EPHEMERIS_TYPE": 0, "CLASSIFICATION_TYPE": "U", "NORAD_CAT_ID": 43633, "ELEMENT_SET_NO": 999, "REV_AT_EPOCH": 2658, "BSTAR": 0, "MEAN_MOTION_DOT": 0, "MEAN_MOTION_DDOT": 0}, "tle": {"line1": "1 43633U 18074B   25357.86597769  .00000000  00000+0  00000+0 0  9996", "line2": "2 43633   0.0122 213.3900 0000575  93.9070 266.0966  1.00269881 26580"}}, "geometry": {"type": "Point", "coordinates": [75.49137234813755, -0.007977435107393278]}}, {"type": "Feature", "properties": {"norad_id": 44333, "name": "AT&T T-16", "group": "intelsat", "lat": 0.031860411737077564, "lon": 165.62821788058818, "alt_km": 35784.37069295057, "timestamp": "2025-12-24T11:32:59.672068+00:00", "meta": {"OBJECT_NAME": "AT&T T-16", "OBJECT_ID": "2019-034A", "EPOCH": "2025-12-23T22:55:25.671936", "MEAN_MOTION": 1.00268558, "ECCENTRICITY": 6.69e-05, "INCLINATION": 0.0228, "RA_OF_ASC_NODE": 67.9518, "ARG_OF_PERICENTER": 76.4171, "MEAN_ANOMALY": 191.3588, "EPHEMERIS_TYPE": 0, "CLASSIFICATION_TYPE": "U", "NORAD_CAT_ID": 44333, "ELEMENT_SET_NO": 999, "REV_AT_EPOCH": 2387, "BSTAR": 0, "MEAN_MOTION_DOT": -9.4e-07, "MEAN_MOTION_DDOT": 0}, "tle": {"line1": "1 44333U 19034A   25357.95515824 -.00000094  00000+0  00000+0 0  9997", "line2": "2 44333   0.0228  67.9518 0000669  76.4171 191.3588  1.00268558 23874"}}, "geometry": {"type": "Point", "coordinates": [165.62821788058818, 0.031860411737077564]}}]}